NORAD_CAT_ID,OBJECT_NAME,OBJECT_TYPE,EPOCH,MEAN_MOTION,ECCENTRICITY,INCLINATION,RA_OF_ASC_NODE,ARG_OF_PERICENTER,MEAN_ANOMALY,BSTAR,MEAN_MOTION_DOT,MEAN_MOTION_DDOT,TLE_LINE0,TLE_LINE1,TLE_LINE2,SEMIMAJOR_AXIS,PERIOD,APOGEE,PERIGEE,DECAYED
55783.0,STARLINK-5825,PAYLOAD,2023-04-17 20:41:34,15.6992698,0.0003063,70.0007,28.3822,234.7931,125.2978,7.4612e-06,6.85e-06,0.0,0 STARLINK-5825,1 55783U 23028AU  23107.86220525  .00000685  00000-0  74612-5 0  9990,2 55783  70.0007  28.3822 0003063 234.7931 125.2978 15.69926980  7758,6737.243,91.724,361.172,357.044,0.0
55783.0,STARLINK-5825,PAYLOAD,2023-04-18 04:20:19,15.69931836,0.0003443,69.9989,27.4825,260.6556,99.4251,1.1248e-05,1.14e-05,0.0,0 STARLINK-5825,1 55783U 23028AU  23108.18078541  .00001140  00000-0  11248-4 0  9997,2 55783  69.9989  27.4825 0003443 260.6556  99.4251 15.69931836  7808,6737.229,91.724,361.414,356.774,0.0
55783.0,STARLINK-5825,PAYLOAD,2023-04-18 18:06:06,15.69919005,0.0003287,70.0,25.869,262.8085,97.2737,1.6295e-05,1.747e-05,0.0,0 STARLINK-5825,1 55783U 23028AU  23108.75424512  .00001747  00000-0  16295-4 0  9993,2 55783  70.0000  25.8690 0003287 262.8085  97.2737 15.69919005  7892,6737.266,91.724,361.345,356.916,0.0
55783.0,STARLINK-5825,PAYLOAD,2023-04-19 04:48:21,15.69933972,0.000327,69.9997,24.6137,266.5779,93.5043,3.0669e-05,3.478e-05,0.0,0 STARLINK-5825,1 55783U 23028AU  23109.20025142  .00003478  00000-0  30669-4 0  9994,2 55783  69.9997  24.6137 0003270 266.5779  93.5043 15.69933972  7966,6737.223,91.724,361.291,356.885,0.0
55783.0,STARLINK-5825,PAYLOAD,2023-04-20 03:44:39,15.699202,0.0002207,70.0027,21.928,260.5808,99.5139,1.8748e-05,2.042e-05,0.0,0 STARLINK-5825,1 55783U 23028AU  23110.15601335  .00002042  00000-0  18748-4 0  9994,2 55783  70.0027  21.9280 0002207 260.5808  99.5139 15.69920200  8118,6737.262,91.724,360.614,357.64,0.0
55783.0,STARLINK-5825,PAYLOAD,2023-04-21 04:12:41,15.69927519,0.0002876,69.9993,19.061,228.366,131.7289,1.6156e-06,-1.8e-07,0.0,0 STARLINK-5825,1 55783U 23028AU  23111.17548121 -.00000018  00000-0  16156-5 0  9994,2 55783  69.9993  19.0610 0002876 228.3660 131.7289 15.69927519  8274,6737.241,91.724,361.044,357.169,0.0
55783.0,STARLINK-5825,PAYLOAD,2023-04-21 17:58:26,15.69944006,0.0003136,70.0006,17.4485,253.9732,106.1118,1.4797e-05,1.568e-05,0.0,0 STARLINK-5825,1 55783U 23028AU  23111.74891782  .00001568  00000-0  14797-4 0  9999,2 55783  70.0006  17.4485 0003136 253.9732 106.1118 15.69944006  8365,6737.194,91.723,361.172,356.946,0.0
55783.0,STARLINK-5825,PAYLOAD,2023-04-21 19:30:11,15.69943791,0.0003147,70.0004,17.2697,252.3083,107.7769,1.508e-05,1.602e-05,0.0,0 STARLINK-5825,1 55783U 23028AU  23111.81263389  .00001602  00000-0  15080-4 0  9998,2 55783  70.0004  17.2697 0003147 252.3083 107.7769 15.69943791  8370,6737.195,91.723,361.18,356.94,0.0
55783.0,STARLINK-5825,PAYLOAD,2023-04-22 19:58:15,15.69918449,0.0003708,69.9982,14.4042,256.5531,103.5251,-1.6703e-06,-4.14e-06,0.0,0 STARLINK-5825,1 55783U 23028AU  23112.83212235 -.00000414  00000-0 -16703-5 0  9991,2 55783  69.9982  14.4042 0003708 256.5531 103.5251 15.69918449  8532,6737.267,91.725,361.63,356.634,0.0
55783.0,STARLINK-5825,PAYLOAD,2023-04-23 02:05:15,15.69925762,0.000354,69.9982,13.6883,246.284,113.7985,1.146e-06,-7.5e-07,0.0,0 STARLINK-5825,1 55783U 23028AU  23113.08698429 -.00000075  00000-0  11460-5 0  9999,2 55783  69.9982  13.6883 0003540 246.2840 113.7985 15.69925762  8576,6737.246,91.724,361.496,356.726,0.0
55783.0,STARLINK-5825,PAYLOAD,2023-04-23 17:22:45,15.6993375,0.0003535,70.0004,11.8982,259.7031,100.3766,1.272e-05,1.318e-05,0.0,0 STARLINK-5825,1 55783U 23028AU  23113.72414049  .00001318  00000-0  12720-4 0  9993,2 55783  70.0004  11.8982 0003535 259.7031 100.3766 15.69933750  8675,6737.224,91.724,361.47,356.707,0.0
55783.0,STARLINK-5825,PAYLOAD,2023-04-24 02:33:15,15.69940203,0.0003024,70.0006,10.8217,257.7747,102.3111,1.9381e-05,2.12e-05,0.0,0 STARLINK-5825,1 55783U 23028AU  23114.10643386  .00002120  00000-0  19381-4 0  9996,2 55783  70.0006  10.8217 0003024 257.7747 102.3111 15.69940203  8736,6737.205,91.723,361.107,357.033,0.0
55783.0,STARLINK-5825,PAYLOAD,2023-04-24 16:19:02,15.69930667,0.0003435,70.0004,9.2113,247.6693,112.4138,2.4806e-05,2.772e-05,0.0,0 STARLINK-5825,1 55783U 23028AU  23114.67988950  .00002772  00000-0  24806-4 0  9998,2 55783  70.0004   9.2113 0003435 247.6693 112.4138 15.69930667  8829,6737.232,91.724,361.412,356.783,0.0
55783.0,STARLINK-5825,PAYLOAD,2023-04-25 03:01:20,15.69875032,0.0003228,70.0008,7.9584,249.7571,110.3278,-8.7465e-05,-0.00010694,0.0,0 STARLINK-5825,1 55783U 23028AU  23115.12593740 -.00010694  00000-0 -87465-4 0  9992,2 55783  70.0008   7.9584 0003228 249.7571 110.3278 15.69875032  8891,6737.392,91.727,361.431,357.082,0.0
55783.0,STARLINK-5825,PAYLOAD,2023-04-26 01:57:36,15.69925623,0.0003025,70.0015,5.2709,253.2822,106.8042,1.7071e-05,1.841e-05,0.0,0 STARLINK-5825,1 55783U 23028AU  23116.08167763  .00001841  00000-0  17071-4 0  9998,2 55783  70.0015   5.2709 0003025 253.2822 106.8042 15.69925623  9042,6737.247,91.724,361.15,357.074,0.0
55783.0,STARLINK-5825,PAYLOAD,2023-04-26 15:43:22,15.69940277,0.0003199,69.9991,3.6576,258.914,101.1696,0.00011234,0.00013325,0.0,0 STARLINK-5825,1 55783U 23028AU  23116.65511702  .00013325  00000-0  11234-3 0  9991,2 55783  69.9991   3.6576 0003199 258.9140 101.1696 15.69940277  9138,6737.205,91.723,361.225,356.915,0.0
55783.0,STARLINK-5825,PAYLOAD,2023-04-27 16:11:24,15.69932264,0.0002853,70.0011,0.7917,251.2334,108.8552,1.6263e-05,1.744e-05,0.0,0 STARLINK-5825,1 55783U 23028AU  23117.67458865  .00001744  00000-0  16263-4 0  9994,2 55783  70.0011   0.7917 0002853 251.2334 108.8552 15.69932264  9297,6737.228,91.724,361.015,357.171,0.0
55783.0,STARLINK-5825,PAYLOAD,2023-04-28 09:00:40,15.69931257,0.000286,69.9985,358.822,252.2727,107.8157,-3.3448e-05,-4.233e-05,0.0,0 STARLINK-5825,1 55783U 23028AU  23118.37547447 -.00004233  00000-0 -33448-4 0  9999,2 55783  69.9985 358.8220 0002860 252.2727 107.8157 15.69931257  9407,6737.231,91.724,361.023,357.169,0.0
55783.0,STARLINK-5825,PAYLOAD,2023-04-29 01:49:57,15.6992144,0.0002851,69.9983,356.8514,288.5254,71.5632,1.6699e-06,-1.2e-07,0.0,0 STARLINK-5825,1 55783U 23028AU  23119.07635811 -.00000012  00000-0  16699-5 0  9990,2 55783  69.9983 356.8514 0002851 288.5254  71.5632 15.69921440  9516,6737.259,91.724,361.045,357.203,0.0
55783.0,STARLINK-5825,PAYLOAD,2023-04-29 17:07:28,15.69924166,0.0003397,69.9973,355.0614,263.0392,97.0418,2.8664e-06,1.32e-06,0.0,0 STARLINK-5825,1 55783U 23028AU  23119.71351910  .00000132  00000-0  28664-5 0  9993,2 55783  69.9973 355.0614 0003397 263.0392  97.0418 15.69924166  9618,6737.251,91.724,361.405,356.827,0.0
55783.0,STARLINK-5825,PAYLOAD,2023-04-30 02:17:58,15.69928592,0.000303,69.998,353.9841,265.03,95.055,5.8577e-06,4.92e-06,0.0,0 STARLINK-5825,1 55783U 23028AU  23120.09581650  .00000492  00000-0  58577-5 0  9997,2 55783  69.9980 353.9841 0003030 265.0300  95.0550 15.69928592  9678,6737.238,91.724,361.145,357.062,0.0
55783.0,STARLINK-5825,PAYLOAD,2023-04-30 17:35:30,15.69916976,0.0003333,69.9968,352.1918,265.0799,95.0016,-6.5699e-06,-1.002e-05,0.0,0 STARLINK-5825,1 55783U 23028AU  23120.73299581 -.00001002  00000-0 -65699-5 0  9990,2 55783  69.9968 352.1918 0003333 265.0799  95.0016 15.69916976  9779,6737.272,91.725,361.382,356.891,0.0
55783.0,STARLINK-5825,PAYLOAD,2023-05-01 01:14:16,15.69910728,0.0003284,69.9974,351.2963,270.1423,89.9396,5.4391e-07,-1.47e-06,0.0,0 STARLINK-5825,1 55783U 23028AU  23121.05158361 -.00000147  00000-0  54391-6 0  9992,2 55783  69.9974 351.2963 0003284 270.1423  89.9396 15.69910728  9820,6737.289,91.725,361.367,356.942,0.0
55783.0,STARLINK-5825,PAYLOAD,2023-05-01 18:03:31,15.69936773,0.0003601,69.9976,349.3242,274.7394,85.3391,1.8954e-05,2.068e-05,0.0,0 STARLINK-5825,1 55783U 23028AU  23121.75244727  .00002068  00000-0  18954-4 0  9997,2 55783  69.9976 349.3242 0003601 274.7394  85.3391 15.69936773  9935,6737.215,91.723,361.506,356.654,0.0
55783.0,STARLINK-5825,PAYLOAD,2023-05-02 01:42:17,15.69927602,0.0002971,69.9987,348.4308,272.3467,87.7389,1.5283e-05,1.626e-05,0.0,0 STARLINK-5825,1 55783U 23028AU  23122.07103696  .00001626  00000-0  15283-4 0  9993,2 55783  69.9987 348.4308 0002971 272.3467  87.7389 15.69927602  9983,6737.241,91.724,361.108,357.104,0.0
55783.0,STARLINK-5825,PAYLOAD,2023-05-02 18:31:34,15.69917232,0.0002969,69.9982,346.4594,260.1946,99.8915,2.8518e-05,3.217e-05,0.0,0 STARLINK-5825,1 55783U 23028AU  23122.77192451  .00003217  00000-0  28518-4 0  9990,2 55783  69.9982 346.4594 0002969 260.1946  99.8915 15.69917232 10098,6737.271,91.725,361.136,357.136,0.0
55783.0,STARLINK-5825,PAYLOAD,2023-05-02 21:35:04,15.69916879,0.0003379,69.9974,346.1,261.4823,98.5989,2.7105e-05,3.047e-05,0.0,0 STARLINK-5825,1 55783U 23028AU  23122.89935838  .00003047  00000-0  27105-4 0  9999,2 55783  69.9974 346.1000 0003379 261.4823  98.5989 15.69916879 10118,6737.272,91.725,361.413,356.86,0.0
55783.0,STARLINK-5825,PAYLOAD,2023-05-03 00:38:36,15.69896214,0.0002863,69.9982,345.7431,260.3326,99.7546,-5.2065e-07,-2.75e-06,0.0,0 STARLINK-5825,1 55783U 23028AU  23123.02681225 -.00000275  00000-0 -52065-6 0  9990,2 55783  69.9982 345.7431 0002863 260.3326  99.7546 15.69896214 10137,6737.331,91.726,361.125,357.267,0.0
55783.0,STARLINK-5825,PAYLOAD,2023-05-03 08:17:21,15.69919293,0.0003502,69.9968,344.8452,269.896,90.1834,-9.491e-06,-1.354e-05,0.0,0 STARLINK-5825,1 55783U 23028AU  23123.34538313 -.00001354  00000-0 -94910-5 0  9997,2 55783  69.9968 344.8452 0003502 269.8960  90.1834 15.69919293 10186,6737.265,91.724,361.489,356.771,0.0
55783.0,STARLINK-5825,PAYLOAD,2023-05-03 14:24:21,15.69921393,0.0003541,69.9995,344.13,267.6909,92.3882,-3.9889e-06,-6.92e-06,0.0,0 STARLINK-5825,1 55783U 23028AU  23123.60024637 -.00000692  00000-0 -39889-5 0  9993,2 55783  69.9995 344.1300 0003541 267.6909  92.3882 15.69921393 10229,6737.259,91.724,361.51,356.738,0.0
